business_name,telephone,address,state,post_code,manta_url
asdf,(308) 623-2534,1320 Center Avenue Mitchell ,NE,69357,http://www.manta.com/c/mmzx822/helgerson-brad-cpa
asdf,(308) 546-2354,Po Box 463 Mullen ,NE,69152,http://www.manta.com/c/mb8yclm/fred-a-lockwood-co-pc
Liza Simonson CPA,(308) 546-2354,112 Nw 1st St # 1 Mullen ,NE,69152,http://www.manta.com/c/mbnqks7/liza-simonson-cpa
Support for Quickbooks,1 (855) 441-4436,,First,14301,http://www.manta.com/c/mx4phkk/support-for-quickbooks
Goracke Rex J CPA,(402) 873-6022,1720 South 11th St Nebraska City ,NE,68410,http://www.manta.com/c/mbgqxl1/goracke-rex-j-cpa
Reese Kenneth J,(402) 873-5706,502 South 14th St Nebraska City ,NE,68410,http://www.manta.com/c/mt5m3hm/reese-kenneth-j
Helgerson Brad CPA,(308) 623-2534,1320 Center Avenue Mitchell ,NE,69357,http://www.manta.com/c/mmzx822/helgerson-brad-cpa
Fred A Lockwood & CO Pc,(308) 546-2354,Po Box 463 Mullen ,NE,69152,http://www.manta.com/c/mb8yclm/fred-a-lockwood-co-pc
Liza Simonson CPA,(308) 546-2354,112 Nw 1st St # 1 Mullen ,NE,69152,http://www.manta.com/c/mbnqks7/liza-simonson-cpa
Support for Quickbooks,1 (855) 441-4436,,First,14301,http://www.manta.com/c/mx4phkk/support-for-quickbooks
Goracke Rex J CPA,(402) 873-6022,1720 South 11th St Nebraska City ,NE,68410,http://www.manta.com/c/mbgqxl1/goracke-rex-j-cpa
Reese Kenneth J,(402) 873-5706,502 South 14th St Nebraska City ,NE,68410,http://www.manta.com/c/mt5m3hm/reese-kenneth-j
Helgerson Brad CPA,(308) 623-2534,1320 Center Avenue Mitchell ,NE,69357,http://www.manta.com/c/mmzx822/helgerson-brad-cpa
Fred A Lockwood & CO Pc,(308) 546-2354,Po Box 463 Mullen ,NE,69152,http://www.manta.com/c/mb8yclm/fred-a-lockwood-co-pc
Liza Simonson CPA,(308) 546-2354,112 Nw 1st St # 1 Mullen ,NE,69152,http://www.manta.com/c/mbnqks7/liza-simonson-cpa
Support for Quickbooks,1 (855) 441-4436,,First,14301,http://www.manta.com/c/mx4phkk/support-for-quickbooks
Goracke Rex J CPA,(402) 873-6022,1720 South 11th St Nebraska City ,NE,68410,http://www.manta.com/c/mbgqxl1/goracke-rex-j-cpa
Reese Kenneth J,(402) 873-5706,502 South 14th St Nebraska City ,NE,68410,http://www.manta.com/c/mt5m3hm/reese-kenneth-j
Helgerson Brad CPA,(308) 623-2534,1320 Center Avenue Mitchell ,NE,69357,http://www.manta.com/c/mmzx822/helgerson-brad-cpa
Fred A Lockwood & CO Pc,(308) 546-2354,Po Box 463 Mullen ,NE,69152,http://www.manta.com/c/mb8yclm/fred-a-lockwood-co-pc
Liza Simonson CPA,(308) 546-2354,112 Nw 1st St # 1 Mullen ,NE,69152,http://www.manta.com/c/mbnqks7/liza-simonson-cpa
Support for Quickbooks,1 (855) 441-4436,,First,14301,http://www.manta.com/c/mx4phkk/support-for-quickbooks
Goracke Rex J CPA,(402) 873-6022,1720 South 11th St Nebraska City ,NE,68410,http://www.manta.com/c/mbgqxl1/goracke-rex-j-cpa
Reese Kenneth J,(402) 873-5706,502 South 14th St Nebraska City ,NE,68410,http://www.manta.com/c/mt5m3hm/reese-kenneth-j
Helgerson Brad CPA,(308) 623-2534,1320 Center Avenue Mitchell ,NE,69357,http://www.manta.com/c/mmzx822/helgerson-brad-cpa
Fred A Lockwood & CO Pc,(308) 546-2354,Po Box 463 Mullen ,NE,69152,http://www.manta.com/c/mb8yclm/fred-a-lockwood-co-pc
Liza Simonson CPA,(308) 546-2354,112 Nw 1st St # 1 Mullen ,NE,69152,http://www.manta.com/c/mbnqks7/liza-simonson-cpa
Support for Quickbooks,1 (855) 441-4436,,First,14301,http://www.manta.com/c/mx4phkk/support-for-quickbooks
Goracke Rex J CPA,(402) 873-6022,1720 South 11th St Nebraska City ,NE,68410,http://www.manta.com/c/mbgqxl1/goracke-rex-j-cpa
Reese Kenneth J,(402) 873-5706,502 South 14th St Nebraska City ,NE,68410,http://www.manta.com/c/mt5m3hm/reese-kenneth-j
Helgerson Brad CPA,(308) 623-2534,1320 Center Avenue Mitchell ,NE,69357,http://www.manta.com/c/mmzx822/helgerson-brad-cpa
Fred A Lockwood & CO Pc,(308) 546-2354,Po Box 463 Mullen ,NE,69152,http://www.manta.com/c/mb8yclm/fred-a-lockwood-co-pc
Liza Simonson CPA,(308) 546-2354,112 Nw 1st St # 1 Mullen ,NE,69152,http://www.manta.com/c/mbnqks7/liza-simonson-cpa
Support for Quickbooks,1 (855) 441-4436,,First,14301,http://www.manta.com/c/mx4phkk/support-for-quickbooks
Goracke Rex J CPA,(402) 873-6022,1720 South 11th St Nebraska City ,NE,68410,http://www.manta.com/c/mbgqxl1/goracke-rex-j-cpa
Reese Kenneth J,(402) 873-5706,502 South 14th St Nebraska City ,NE,68410,http://www.manta.com/c/mt5m3hm/reese-kenneth-j
